[{"OBJECT_NAME":"SES-18","OBJECT_ID":"2023-038A","EPOCH":"2026-02-01T14:42:28.074816","MEAN_MOTION":1.00273405,"ECCENTRICITY":0.00029365,"INCLINATION":0.0718,"RA_OF_ASC_NODE":267.1887,"ARG_OF_PERICENTER":18.4001,"MEAN_ANOMALY":323.71,"EPHEMERIS_TYPE":0,"CLASSIFICATION_TYPE":"U","NORAD_CAT_ID":55970,"ELEMENT_SET_NO":999,"REV_AT_EPOCH":1074,"BSTAR":0,"MEAN_MOTION_DOT":-1.11e-6,"MEAN_MOTION_DDOT":0},{"OBJECT_NAME":"SES-19","OBJECT_ID":"2023-038B","EPOCH":"2026-02-01T18:39:38.587680","MEAN_MOTION":1.00268766,"ECCENTRICITY":0.00018928,"INCLINATION":0.0181,"RA_OF_ASC_NODE":287.1248,"ARG_OF_PERICENTER":21.8764,"MEAN_ANOMALY":327.9831,"EPHEMERIS_TYPE":0,"CLASSIFICATION_TYPE":"U","NORAD_CAT_ID":55971,"ELEMENT_SET_NO":999,"REV_AT_EPOCH":1072,"BSTAR":0,"MEAN_MOTION_DOT":0,"MEAN_MOTION_DDOT":0},{"OBJECT_NAME":"INTELSAT 40E (IS-40E)","OBJECT_ID":"2023-052A","EPOCH":"2026-02-01T19:53:51.601344","MEAN_MOTION":1.0026717,"ECCENTRICITY":9.136e-5,"INCLINATION":0.0271,"RA_OF_ASC_NODE":108.7646,"ARG_OF_PERICENTER":182.2328,"MEAN_ANOMALY":48.5005,"EPHEMERIS_TYPE":0,"CLASSIFICATION_TYPE":"U","NORAD_CAT_ID":56174,"ELEMENT_SET_NO":999,"REV_AT_EPOCH":1046,"BSTAR":0,"MEAN_MOTION_DOT":0,"MEAN_MOTION_DDOT":0},{"OBJECT_NAME":"VIASAT-3 F1","OBJECT_ID":"2023-060A","EPOCH":"2026-02-01T21:37:19.188192","MEAN_MOTION":1.00269639,"ECCENTRICITY":5.564e-5,"INCLINATION":0.0065,"RA_OF_ASC_NODE":90.1428,"ARG_OF_PERICENTER":315.5783,"MEAN_ANOMALY":321.7233,"EPHEMERIS_TYPE":0,"CLASSIFICATION_TYPE":"U","NORAD_CAT_ID":56370,"ELEMENT_SET_NO":999,"REV_AT_EPOCH":1007,"BSTAR":0,"MEAN_MOTION_DOT":0,"MEAN_MOTION_DDOT":0},{"OBJECT_NAME":"ARCTURUS","OBJECT_ID":"2023-060B","EPOCH":"2026-02-01T01:50:55.587264","MEAN_MOTION":1.00274277,"ECCENTRICITY":6.11e-5,"INCLINATION":2.4235,"RA_OF_ASC_NODE":81.7025,"ARG_OF_PERICENTER":354.2538,"MEAN_ANOMALY":155.5587,"EPHEMERIS_TYPE":0,"CLASSIFICATION_TYPE":"U","NORAD_CAT_ID":56371,"ELEMENT_SET_NO":999,"REV_AT_EPOCH":1009,"BSTAR":0,"MEAN_MOTION_DOT":-7.4e-7,"MEAN_MOTION_DDOT":0},{"OBJECT_NAME":"GS-1","OBJECT_ID":"2023-060C","EPOCH":"2026-02-01T15:34:45.562944","MEAN_MOTION":1.00303512,"ECCENTRICITY":0.00046191,"INCLINATION":2.3762,"RA_OF_ASC_NODE":81.484,"ARG_OF_PERICENTER":256.3933,"MEAN_ANOMALY":107.5822,"EPHEMERIS_TYPE":0,"CLASSIFICATION_TYPE":"U","NORAD_CAT_ID":56372,"ELEMENT_SET_NO":999,"REV_AT_EPOCH":618,"BSTAR":0,"MEAN_MOTION_DOT":-1.53e-6,"MEAN_MOTION_DDOT":0},{"OBJECT_NAME":"BEIDOU-3 G4","OBJECT_ID":"2023-066A","EPOCH":"2026-01-26T09:27:28.593216","MEAN_MOTION":1.00269231,"ECCENTRICITY":0.00015168,"INCLINATION":0.7213,"RA_OF_ASC_NODE":306.1415,"ARG_OF_PERICENTER":216.8774,"MEAN_ANOMALY":264.4347,"EPHEMERIS_TYPE":0,"CLASSIFICATION_TYPE":"U","NORAD_CAT_ID":56564,"ELEMENT_SET_NO":999,"REV_AT_EPOCH":997,"BSTAR":0,"MEAN_MOTION_DOT":-1.0e-6,"MEAN_MOTION_DDOT":0},{"OBJECT_NAME":"ARABSAT-7B (BADR-8)","OBJECT_ID":"2023-075A","EPOCH":"2026-02-01T21:17:38.584896","MEAN_MOTION":1.00271303,"ECCENTRICITY":0.0005191,"INCLINATION":0.0773,"RA_OF_ASC_NODE":34.3085,"ARG_OF_PERICENTER":306.5243,"MEAN_ANOMALY":136.6275,"EPHEMERIS_TYPE":0,"CLASSIFICATION_TYPE":"U","NORAD_CAT_ID":56757,"ELEMENT_SET_NO":999,"REV_AT_EPOCH":976,"BSTAR":0,"MEAN_MOTION_DOT":1.35e-6,"MEAN_MOTION_DDOT":0},{"OBJECT_NAME":"NVS-01 (IRNSS-1J)","OBJECT_ID":"2023-076A","EPOCH":"2026-02-01T22:39:35.721216","MEAN_MOTION":1.00271918,"ECCENTRICITY":0.00091284,"INCLINATION":2.4925,"RA_OF_ASC_NODE":249.741,"ARG_OF_PERICENTER":35.0397,"MEAN_ANOMALY":316.7958,"EPHEMERIS_TYPE":0,"CLASSIFICATION_TYPE":"U","NORAD_CAT_ID":56759,"ELEMENT_SET_NO":999,"REV_AT_EPOCH":975,"BSTAR":0,"MEAN_MOTION_DOT":-3.47e-6,"MEAN_MOTION_DDOT":0},{"OBJECT_NAME":"NUSANTARA TIGA (SATRIA)","OBJECT_ID":"2023-086A","EPOCH":"2026-02-01T22:44:20.265792","MEAN_MOTION":1.00260222,"ECCENTRICITY":0.0005662,"INCLINATION":0.0471,"RA_OF_ASC_NODE":302.0058,"ARG_OF_PERICENTER":3.9166,"MEAN_ANOMALY":313.2702,"EPHEMERIS_TYPE":0,"CLASSIFICATION_TYPE":"U","NORAD_CAT_ID":57045,"ELEMENT_SET_NO":999,"REV_AT_EPOCH":840,"BSTAR":0,"MEAN_MOTION_DOT":-2.47e-6,"MEAN_MOTION_DDOT":0},{"OBJECT_NAME":"H2SAT (HEINRICH HERTZ)","OBJECT_ID":"2023-093A","EPOCH":"2026-02-01T22:02:54.236256","MEAN_MOTION":1.00269925,"ECCENTRICITY":9.936e-5,"INCLINATION":0.0155,"RA_OF_ASC_NODE":72.4982,"ARG_OF_PERICENTER":19.9369,"MEAN_ANOMALY":11.0913,"EPHEMERIS_TYPE":0,"CLASSIFICATION_TYPE":"U","NORAD_CAT_ID":57213,"ELEMENT_SET_NO":999,"REV_AT_EPOCH":956,"BSTAR":0,"MEAN_MOTION_DOT":-8.0e-8,"MEAN_MOTION_DDOT":0},{"OBJECT_NAME":"SYRACUSE 4B","OBJECT_ID":"2023-093B","EPOCH":"2026-02-01T22:00:46.938816","MEAN_MOTION":1.00273081,"ECCENTRICITY":4.751e-5,"INCLINATION":0.0149,"RA_OF_ASC_NODE":69.4522,"ARG_OF_PERICENTER":258.4544,"MEAN_ANOMALY":127.826,"EPHEMERIS_TYPE":0,"CLASSIFICATION_TYPE":"U","NORAD_CAT_ID":57214,"ELEMENT_SET_NO":999,"REV_AT_EPOCH":561,"BSTAR":0,"MEAN_MOTION_DOT":-6.4e-7,"MEAN_MOTION_DDOT":0},{"OBJECT_NAME":"JUPITER 3 (ECHOSTAR 24)","OBJECT_ID":"2023-108A","EPOCH":"2026-01-31T21:36:12.029472","MEAN_MOTION":1.00271493,"ECCENTRICITY":0.00010512,"INCLINATION":0.0135,"RA_OF_ASC_NODE":74.5621,"ARG_OF_PERICENTER":231.6158,"MEAN_ANOMALY":53.7759,"EPHEMERIS_TYPE":0,"CLASSIFICATION_TYPE":"U","NORAD_CAT_ID":57479,"ELEMENT_SET_NO":999,"REV_AT_EPOCH":928,"BSTAR":0,"MEAN_MOTION_DOT":-1.59e-6,"MEAN_MOTION_DDOT":0},{"OBJECT_NAME":"GALAXY 37 (G-37)","OBJECT_ID":"2023-112A","EPOCH":"2026-02-01T16:18:18.889920","MEAN_MOTION":1.00271108,"ECCENTRICITY":0.00021589,"INCLINATION":0.0203,"RA_OF_ASC_NODE":66.3103,"ARG_OF_PERICENTER":245.9234,"MEAN_ANOMALY":297.1969,"EPHEMERIS_TYPE":0,"CLASSIFICATION_TYPE":"U","NORAD_CAT_ID":57493,"ELEMENT_SET_NO":999,"REV_AT_EPOCH":918,"BSTAR":0,"MEAN_MOTION_DOT":3.8e-7,"MEAN_MOTION_DDOT":0},{"OBJECT_NAME":"LUDI TANCE-4 01A","OBJECT_ID":"2023-120A","EPOCH":"2026-02-01T22:28:14.307744","MEAN_MOTION":1.00274917,"ECCENTRICITY":0.00061067,"INCLINATION":15.1977,"RA_OF_ASC_NODE":197.3083,"ARG_OF_PERICENTER":94.3841,"MEAN_ANOMALY":267.0584,"EPHEMERIS_TYPE":0,"CLASSIFICATION_TYPE":"U","NORAD_CAT_ID":57624,"ELEMENT_SET_NO":999,"REV_AT_EPOCH":919,"BSTAR":0,"MEAN_MOTION_DOT":-1.93e-6,"MEAN_MOTION_DDOT":0},{"OBJECT_NAME":"TJS-10","OBJECT_ID":"2023-169A","EPOCH":"2026-02-01T16:01:13.027296","MEAN_MOTION":1.00270917,"ECCENTRICITY":0.000534,"INCLINATION":2.1949,"RA_OF_ASC_NODE":82.1763,"ARG_OF_PERICENTER":186.7076,"MEAN_ANOMALY":276.267,"EPHEMERIS_TYPE":0,"CLASSIFICATION_TYPE":"U","NORAD_CAT_ID":58204,"ELEMENT_SET_NO":999,"REV_AT_EPOCH":818,"BSTAR":0,"MEAN_MOTION_DOT":-9.0e-8,"MEAN_MOTION_DDOT":0},{"OBJECT_NAME":"ZHONGXING-6E","OBJECT_ID":"2023-172A","EPOCH":"2026-02-01T22:35:43.591200","MEAN_MOTION":1.00269069,"ECCENTRICITY":0.00031472,"INCLINATION":0.022,"RA_OF_ASC_NODE":93.6137,"ARG_OF_PERICENTER":223.1955,"MEAN_ANOMALY":269.7524,"EPHEMERIS_TYPE":0,"CLASSIFICATION_TYPE":"U","NORAD_CAT_ID":58253,"ELEMENT_SET_NO":999,"REV_AT_EPOCH":830,"BSTAR":0,"MEAN_MOTION_DOT":-3.71e-6,"MEAN_MOTION_DDOT":0}]
