SES-18                  
1 55970U 23038A   26032.61282494 -.00000111  00000+0  00000+0 0  9993
2 55970   0.0718 267.1887 0002936  18.4001 323.7100  1.00273405 10747
SES-19                  
1 55971U 23038B   26032.77752995  .00000000  00000+0  00000+0 0  9995
2 55971   0.0181 287.1248 0001892  21.8764 327.9831  1.00268766 10728
INTELSAT 40E (IS-40E)   
1 56174U 23052A   26032.82906946  .00000000  00000+0  00000+0 0  9990
2 56174   0.0271 108.7646 0000913 182.2328  48.5005  1.00267170 10463
VIASAT-3 F1             
1 56370U 23060A   26032.90091653  .00000000  00000+0  00000+0 0  9996
2 56370   0.0065  90.1428 0000556 315.5783 321.7233  1.00269639 10071
ARCTURUS                
1 56371U 23060B   26032.07703226 -.00000074  00000+0  00000+0 0  9993
2 56371   2.4235  81.7025 0000611 354.2538 155.5587  1.00274277 10097
GS-1                    
1 56372U 23060C   26032.64913846 -.00000153  00000+0  00000+0 0  9996
2 56372   2.3762  81.4840 0004619 256.3933 107.5822  1.00303512  6186
BEIDOU-3 G4             
1 56564U 23066A   26026.39408094 -.00000100  00000+0  00000+0 0  9996
2 56564   0.7213 306.1415 0001516 216.8774 264.4347  1.00269231  9978
ARABSAT-7B (BADR-8)     
1 56757U 23075A   26032.88725214  .00000135  00000+0  00000+0 0  9994
2 56757   0.0773  34.3085 0005191 306.5243 136.6275  1.00271303  9760
NVS-01 (IRNSS-1J)       
1 56759U 23076A   26032.94416344 -.00000347  00000+0  00000+0 0  9991
2 56759   2.4925 249.7410 0009128  35.0397 316.7958  1.00271918  9759
NUSANTARA TIGA (SATRIA) 
1 57045U 23086A   26032.94745678 -.00000247  00000+0  00000+0 0  9995
2 57045   0.0471 302.0058 0005662   3.9166 313.2702  1.00260222  8402
H2SAT (HEINRICH HERTZ)  
1 57213U 23093A   26032.91868329 -.00000008  00000+0  00000+0 0  9991
2 57213   0.0155  72.4982 0000993  19.9369  11.0913  1.00269925  9560
SYRACUSE 4B             
1 57214U 23093B   26032.91720994 -.00000064  00000+0  00000+0 0  9999
2 57214   0.0149  69.4522 0000475 258.4544 127.8260  1.00273081  5611
JUPITER 3 (ECHOSTAR 24) 
1 57479U 23108A   26031.90013923 -.00000159  00000+0  00000+0 0  9999
2 57479   0.0135  74.5621 0001051 231.6158  53.7759  1.00271493  9283
GALAXY 37 (G-37)        
1 57493U 23112A   26032.67938530  .00000038  00000+0  00000+0 0  9990
2 57493   0.0203  66.3103 0002158 245.9234 297.1969  1.00271108  9180
LUDI TANCE-4 01A        
1 57624U 23120A   26032.93627671 -.00000193  00000+0  00000+0 0  9998
2 57624  15.1977 197.3083 0006106  94.3841 267.0584  1.00274917  9191
TJS-10                  
1 58204U 23169A   26032.66751189 -.00000009  00000+0  00000+0 0  9994
2 58204   2.1949  82.1763 0005340 186.7076 276.2670  1.00270917  8184
ZHONGXING-6E            
1 58253U 23172A   26032.94147675 -.00000371  00000+0  00000+0 0  9994
2 58253   0.0220  93.6137 0003147 223.1955 269.7524  1.00269069  8309
